satname,norad_id,inclination_deg,eccentricity,mean_motion_rev_per_day,perigee_km,apogee_km,l1,l2
STARLINK-1234,45190,53.0408,0.0006614,15.71843552,349.17585879663966,358.0806378671332,1 45190U 20012N   26141.77334316  .00050674  00000+0  38432-3 0  9996,2 45190  53.0408 325.1229 0006614 169.4896 190.6261 15.71843552347342
STARLINK-1269,45197,53.1563,0.0003097,15.33426231,463.4795133417192,467.7185234315084,1 45197U 20012V   26141.91757804  .00054297  00000+0  16566-2 0  9998,2 45197  53.1563  58.9213 0003097  77.6182 282.5167 15.33426231346137
STARLINK-1154,45198,53.0428,0.0001298,15.5947953,388.2839725633603,390.0407634792982,1 45198U 20012W   26142.00003472  .01177349  00000+0  13328-1 0  9992,2 45198  53.0428  17.1229 0001298  88.5436  90.2272 15.59479530  5787
STARLINK-1199,45201,53.1569,0.0002585,15.33350102,464.0563744053734,467.59470303789203,1 45201U 20012Z   26141.88827361  .00032996  00000+0  10165-2 0  9997,2 45201  53.1569  43.3234 0002585 125.3505 234.7739 15.33350102346374
STARLINK-1209,45206,53.0409,0.000955,15.63515406,371.06016361216825,383.9634528358765,1 45206U 20012AE  26141.76015090  .00091210  00000+0  95980-3 0  9990,2 45206  53.0409 338.7569 0009550 163.5677 196.5648 15.63515406346306
STARLINK-1231,45212,53.0381,0.0003752,15.26638813,483.2934213329736,488.4441712825219,1 45212U 20012AL  26141.92652310  .00024352  00000+0  92671-3 0  9994,2 45212  53.0381  37.8203 0003752  51.7731 308.3604 15.26638813346392
STARLINK-1271,45217,53.1571,0.0002348,15.33477696,463.83902265023426,467.05276917815627,1 45217U 20012AR  26141.88774188  .00030676  00000+0  94230-3 0  9991,2 45217  53.1571  43.4677 0002348 113.3363 246.7887 15.33477696346377
STARLINK-1191,45222,53.1572,0.0004397,15.37198589,451.39360052691063,457.40213168816535,1 45222U 20012AW  26141.91069239  .00042386  00000+0  11506-2 0  9990,2 45222  53.1572  16.8343 0004397 126.9034 233.2373 15.37198589346757
STARLINK-1212,45223,53.0415,0.0003533,15.65027703,370.7738542751995,375.54432009040283,1 45223U 20012AX  26141.92052866 -.00150606  00000+0 -15252-2 0  9999,2 45223  53.0415 353.7427 0003533  72.5426 287.5975 15.65027703347066
STARLINK-1215,45225,53.1579,0.0002246,15.33589075,463.57754790712534,466.65153649988224,1 45225U 20012AZ  26141.88797741  .00040427  00000+0  12323-2 0  9997,2 45225  53.1579  17.7440 0002246 147.2290 212.8852 15.33589075346694
STARLINK-1221,45227,53.0653,0.0001881,15.44233321,432.3504449214479,434.9130323209174,1 45227U 20012BB  26141.70636399  .00011086  00000+0  24623-3 0  9997,2 45227  53.0653 282.9493 0001881 219.1309 140.9561 15.44233321347989
STARLINK-1222,45228,53.0557,0.0001228,15.53877274,404.5851996113088,406.2512407733884,1 45228U 20012BC  26141.85003092  .00024208  00000+0  37565-3 0  9991,2 45228  53.0557 350.8506 0001228  43.7518 316.3588 15.53877274346989
STARLINK-1226,45229,53.1578,0.0003067,15.41996326,438.12690751215723,442.3092865286708,1 45229U 20012BD  26141.88232097  .00040987  00000+0  95138-3 0  9996,2 45229  53.1578  14.8604 0003067 141.1771 218.9456 15.41996326346671
STARLINK-1227,45230,53.1559,0.0003759,15.42120569,437.28899017207823,442.414754206191,1 45230U 20012BE  26141.89343255  .00048550  00000+0  11193-2 0  9990,2 45230  53.1559  14.9324 0003759 140.1715 219.9567 15.42120569346793
STARLINK-1246,45235,53.1559,0.0003124,15.33483414,463.290953844461,467.56681380867667,1 45235U 20012BK  26141.92468158  .00026583  00000+0  81836-3 0  9993,2 45235  53.1559  58.5225 0003124 119.1510 240.9805 15.33483414346191
STARLINK-1270,45237,53.0425,0.0003193,15.58819228,388.91186961712083,393.23468730094373,1 45237U 20012BM  26141.87524179  .00083105  00000+0  10513-2 0  9991,2 45237  53.0425 354.6668 0003193 137.3923 222.7337 15.58819228347047
STARLINK-1279,45360,53.0364,0.0009159,15.71872424,347.3802675150764,359.71136409707015,1 45360U 20019A   26141.17955360  .00055682  00000+0  42062-3 0  9992,2 45360  53.0364 102.8628 0009159  52.0995 308.0849 15.71872424342026
STARLINK-1301,45361,53.0378,0.0006468,15.74136458,342.73973720017693,351.43949034775414,1 45361U 20019B   26141.18326487  .00058954  00000+0  40446-3 0  9995,2 45361  53.0378 105.7782 0006468  70.0046 290.1668 15.74136458341990
STARLINK-1262,45366,53.1533,0.0003738,15.32439688,465.9766244264274,471.0951970945125,1 45366U 20019G   26141.42779760  .00024523  00000+0  78110-3 0  9997,2 45366  53.1533 187.1736 0003738  20.3549 339.7601 15.32439688340895
STARLINK-1273,45367,53.0427,0.0007089,15.54521906,398.73521302363497,408.35027856722354,1 45367U 20019H   26141.21935247  .00035999  00000+0  54099-3 0  9998,2 45367  53.0427 166.9470 0007089 354.7347   5.3587 15.54521906341147
STARLINK-1277,45369,53.0425,0.0006982,15.60880263,380.3910141118258,389.8352165728893,1 45369U 20019K   26141.24721978  .00055802  00000+0  65632-3 0  9997,2 45369  53.0425 161.6989 0006982 347.4591  12.6247 15.60880263341229
STARLINK-1281,45370,53.1567,0.0004766,15.33332319,462.61659662176226,469.1403121528847,1 45370U 20019L   26141.51504267  .00024406  00000+0  75596-3 0  9995,2 45370  53.1567 186.5026 0004766  15.4521 344.6625 15.33332319340917
STARLINK-1300,45374,53.1574,0.0004311,15.33752528,461.67842426399693,467.57825654049066,1 45374U 20019Q   26141.40176161  .00026823  00000+0  81858-3 0  9998,2 45374  53.1574 186.9905 0004311  30.0890 330.0360 15.33752528340897
STARLINK-1302,45375,53.0449,0.0005382,15.65361959,368.5649409406851,375.83100150370956,1 45375U 20019R   26141.22116574  .00031193  00000+0  31142-3 0  9998,2 45375  53.0449 158.3779 0005382  14.5652 345.5516 15.65361959341267
STARLINK-1304,45376,53.0425,0.0006529,15.60202358,382.6550481746044,391.48905815622766,1 45376U 20019S   26141.23274285  .00053850  00000+0  65047-3 0  9999,2 45376  53.0425 159.0275 0006529  12.7045 347.4131 15.60202358341256
STARLINK-1305,45377,53.038,0.0001696,15.69249323,359.90238881946607,362.18831947399303,1 45377U 20019T   26142.00003472 -.00027416  00000+0 -22644-3 0  9991,2 45377  53.0380 134.9082 0001696 121.7498 323.7062 15.69249323  5606
STARLINK-1319,45379,53.0394,0.0005163,15.74349831,343.01002874748974,349.9538702747541,1 45379U 20019V   26141.94855000  .00057705  00000+0  39258-3 0  9998,2 45379  53.0394 127.5497 0005163  35.6964 324.4399 15.74349831341767
STARLINK-1266,45383,53.0452,0.000574,15.56414894,394.15329601773556,401.93235045481106,1 45383U 20019Z   26141.39937639  .00056904  00000+0  79196-3 0  9996,2 45383  53.0452 143.4148 0005740   6.6004 353.5081 15.56414894341483
STARLINK-1267,45384,53.0451,0.0007748,15.62573518,374.9899354690551,385.46269526254673,1 45384U 20019AA  26141.37439191  .00083784  00000+0  91671-3 0  9993,2 45384  53.0451 134.8464 0007748  45.6392 314.5254 15.62573518341600
STARLINK-1272,45386,53.0398,0.0008794,15.67513758,360.08808054166,371.9497019231594,1 45386U 20019AC  26141.19018403  .00041635  00000+0  37866-3 0  9999,2 45386  53.0398 115.1100 0008794  36.2533 323.9077 15.67513758341866
STARLINK-1274,45387,53.0214,0.0009292,15.58373004,386.07426154845234,398.65656323163876,1 45387U 20019AD  26141.18460023  .00063095  00000+0  81398-3 0  9991,2 45387  53.0214 113.2871 0009292  60.1217 300.0717 15.58373004341884
STARLINK-1280,45388,53.0371,0.0005944,15.74945643,340.78975966488997,348.78197036682013,1 45388U 20019AE  26141.20524297  .00056745  00000+0  37625-3 0  9997,2 45388  53.0371 123.7136 0005944  44.5268 315.6228 15.74945643341736
STARLINK-1283,45389,53.0402,0.000462,15.68722678,359.4393707516383,365.6677688381287,1 45389U 20019AF  26141.22258647  .00042039  00000+0  36441-3 0  9999,2 45389  53.0402 114.2069 0004620  61.7346 298.4135 15.68722678341885
STARLINK-1284,45390,53.0406,0.0005184,15.67744789,361.8604788437824,368.85213270320855,1 45390U 20019AG  26141.22743826  .00038525  00000+0  34805-3 0  9996,2 45390  53.0406 137.9189 0005184 354.5774   5.5185 15.67744789341541
STARLINK-1297,45395,53.0413,0.0006945,15.6622612,365.0283738224689,374.4011399127585,1 45395U 20019AM  26141.92586500  .00038218  00000+0  36695-3 0  9990,2 45395  53.0413 133.3073 0006945   4.3840 355.7234 15.66226120340857
STARLINK-1307,45397,53.0523,0.0002646,15.55263291,399.5935207505945,403.1812450540265,1 45397U 20019AP  26141.21444615  .00022539  00000+0  33310-3 0  9994,2 45397  53.0523 141.2405 0002646  42.9241 317.1976 15.55263291341321
STARLINK-1255,45399,53.0353,0.0006436,15.63409552,373.4686100916824,382.16487374828193,1 45399U 20019AR  26141.16190834  .00078920  00000+0  83693-3 0  9995,2 45399  53.0353 110.5327 0006436  52.1331 308.0264 15.63409552341735
STARLINK-1260,45404,53.155,0.000597,15.35952919,454.0102985046233,462.1727553657838,1 45404U 20019AW  26141.45903014  .00029616  00000+0  84124-3 0  9994,2 45404  53.1550 149.8168 0005970  25.9259 334.2042 15.35952919341137
STARLINK-1263,45405,53.1567,0.0004643,15.33418963,462.44308669387647,468.7982000415068,1 45405U 20019AX  26141.39891699  .00029168  00000+0  89820-3 0  9993,2 45405  53.1567 151.0243 0004643  42.1457 317.9901 15.33418963341116
STARLINK-1265,45406,53.155,0.0005686,15.36303855,453.16393887639424,460.9369140177496,1 45406U 20019AY  26141.26061721  .00028809  00000+0  80961-3 0  9993,2 45406  53.1550 150.7842 0005686  15.9861 344.1321 15.36303855341108
STARLINK-1278,45408,53.0399,0.0007217,15.67100683,362.3358630343828,372.07208819858806,1 45408U 20019BA  26141.96218450  .00039310  00000+0  36416-3 0  9990,2 45408  53.0399 132.1777 0007217  26.2893 333.8487 15.67100683341413
STARLINK-1296,45412,53.156,0.0006537,15.36523829,451.93030946771796,460.8657805855855,1 45412U 20019BE  26141.43281772  .00030708  00000+0  85588-3 0  9990,2 45412  53.1560 149.6944 0006537  15.5272 344.5931 15.36523829341133
STARLINK-1309,45414,53.0607,0.0006866,15.66286167,364.90933674271037,374.17524994833275,1 45414U 20019BG  26141.39867536  .00035576  00000+0  34125-3 0  9994,2 45414  53.0607 128.7407 0006866   2.1512 357.9531 15.66286167341398
